NORAD_CAT_ID,OBJECT_NAME,OBJECT_TYPE,EPOCH,MEAN_MOTION,ECCENTRICITY,INCLINATION,RA_OF_ASC_NODE,ARG_OF_PERICENTER,MEAN_ANOMALY,BSTAR,MEAN_MOTION_DOT,MEAN_MOTION_DDOT,TLE_LINE0,TLE_LINE1,TLE_LINE2,SEMIMAJOR_AXIS,PERIOD,APOGEE,PERIGEE,DECAYED
53988.0,STARLINK-5113,PAYLOAD,2023-01-19 02:03:29,15.08848292,0.000138,53.2167,317.0584,68.6421,291.4718,0.00014905,2.086e-05,0.0,0 STARLINK-5113,1 53988U 22125AA  23019.08575623  .00002086  00000-0  14905-3 0  9994,2 53988  53.2167 317.0584 0001380  68.6421 291.4718 15.08848292 16585,6917.855,95.437,540.675,538.765,0.0
53988.0,STARLINK-5113,PAYLOAD,2023-01-19 05:14:15,15.08847754,0.0001386999999999,53.2173,316.4658,77.6869,282.4278,0.00014994,2.1e-05,0.0,0 STARLINK-5113,1 53988U 22125AA  23019.21823597  .00002100  00000-0  14994-3 0  9990,2 53988  53.2173 316.4658 0001387  77.6869 282.4278 15.08847754 16527,6917.857,95.437,540.681,538.762,0.0
53988.0,STARLINK-5113,PAYLOAD,2023-01-20 01:54:17,15.08832913,0.0001214,53.2177,312.5984,75.0995,285.0131,-0.00012132,-2.218e-05,0.0,0 STARLINK-5113,1 53988U 22125AA  23020.07937411 -.00002218  00000-0 -12132-3 0  9991,2 53988  53.2177 312.5984 0001214  75.0995 285.0131 15.08832913 16732,6917.901999999999,95.438,540.607,538.927,0.0
53988.0,STARLINK-5113,PAYLOAD,2023-01-21 01:45:03,15.08855313,0.0001189,53.2167,308.1359,101.5858,258.5268,-3.9681e-05,-9.2e-06,0.0,0 STARLINK-5113,1 53988U 22125AA  23021.07295617 -.00000920  00000-0 -39681-4 0  9994,2 53988  53.2167 308.1359 0001189 101.5858 258.5268 15.08855313 16883,6917.834,95.437,540.521,538.876,0.0
53988.0,STARLINK-5113,PAYLOAD,2023-01-22 03:11:14,15.08839294,0.000118,53.216,303.3796,93.195,266.9178,8.8754e-05,1.125e-05,0.0,0 STARLINK-5113,1 53988U 22125AA  23022.13280162  .00001125  00000-0  88754-4 0  9992,2 53988  53.2160 303.3796 0001180  93.1950 266.9178 15.08839294 17040,6917.883000000001,95.438,540.564,538.931,0.0
53988.0,STARLINK-5113,PAYLOAD,2023-01-22 19:05:06,15.08779866,0.0001618,53.2187,300.4072,91.6103,268.5074,0.00046544,7.115e-05,0.0,0 STARLINK-5113,1 53988U 22125AA  23022.79521840  .00007115  00000-0  46544-3 0  9990,2 53988  53.2187 300.4072 0001618  91.6103 268.5074 15.08779866 17145,6918.064,95.441,541.049,538.81,0.0
53988.0,STARLINK-5113,PAYLOAD,2023-01-23 01:26:39,15.08834994,6.459999999999998e-05,53.2161,299.2155,72.2962,287.8101,-8.9017e-05,-1.704e-05,0.0,0 STARLINK-5113,1 53988U 22125AA  23023.06017375 -.00001704  00000-0 -89017-4 0  9997,2 53988  53.2161 299.2155 0000646  72.2962 287.8101 15.08834994 17185,6917.896,95.438,540.2080000000001,539.314,0.0
53988.0,STARLINK-5113,PAYLOAD,2023-01-23 10:58:57,15.08841015,0.0001009,53.2166,297.4322,89.9828,270.128,-5.0263e-05,-1.088e-05,0.0,0 STARLINK-5113,1 53988U 22125AA  23023.45760839 -.00001088  00000-0 -50263-4 0  9996,2 53988  53.2166 297.4322 0001009  89.9828 270.1280 15.08841015 17248,6917.877,95.437,540.44,539.044,0.0
53988.0,STARLINK-5113,PAYLOAD,2023-01-24 02:52:48,15.08846965,0.000192,53.2159,294.4575,78.4441,281.6767,0.00013031,1.787e-05,0.0,0 STARLINK-5113,1 53988U 22125AA  23024.12000325  .00001787  00000-0  13031-3 0  9993,2 53988  53.2159 294.4575 0001920  78.4441 281.6767 15.08846965 17340,6917.859,95.437,541.052,538.396,0.0
53988.0,STARLINK-5113,PAYLOAD,2023-01-24 04:28:10,15.08858556,6.75e-05,53.2157,294.1601,120.8702,239.2356,8.5382e-06,-1.52e-06,0.0,0 STARLINK-5113,1 53988U 22125AA  23024.18623604 -.00000152  00000-0  85382-5 0  9996,2 53988  53.2157 294.1601 0000675 120.8702 239.2356 15.08858556 17356,6917.8240000000005,95.436,540.156,539.222,0.0
53988.0,STARLINK-5113,PAYLOAD,2023-01-25 01:08:12,15.08845346,0.0001607,53.217,290.2904,106.7025,253.4144,6.216e-05,7.02e-06,0.0,0 STARLINK-5113,1 53988U 22125AA  23025.04736661  .00000702  00000-0  62160-4 0  9998,2 53988  53.2170 290.2904 0001607 106.7025 253.4144 15.08845346 17481,6917.8640000000005,95.437,540.841,538.617,0.0
53988.0,STARLINK-5113,PAYLOAD,2023-01-25 10:40:31,15.0883952,0.0001059,53.2156,288.5115,86.5433,273.568,5.3466000000000006e-05,5.63e-06,0.0,0 STARLINK-5113,1 53988U 22125AA  23025.44481124  .00000563  00000-0  53466-4 0  9997,2 53988  53.2156 288.5115 0001059  86.5433 273.5680 15.08839520 17540,6917.882,95.438,540.479,539.014,0.0
53988.0,STARLINK-5113,PAYLOAD,2023-01-26 02:34:22,15.08848568,0.0001186,53.2158,285.5356,88.2528,271.86,2.5635e-05,1.2e-06,0.0,0 STARLINK-5113,1 53988U 22125AA  23026.10720704  .00000120  00000-0  25635-4 0  9997,2 53988  53.2158 285.5356 0001186  88.2528 271.8600 15.08848568 17647,6917.854,95.437,540.54,538.899,0.0
53988.0,STARLINK-5113,PAYLOAD,2023-01-27 02:25:09,15.08851843,0.0001236,53.2157,281.0741,100.0028,260.1104,4.0661e-05,3.59e-06,0.0,0 STARLINK-5113,1 53988U 22125AA  23027.10080171  .00000359  00000-0  40661-4 0  9995,2 53988  53.2157 281.0741 0001236 100.0028 260.1104 15.08851843 17717,6917.844,95.437,540.564,538.854,0.0
53988.0,STARLINK-5113,PAYLOAD,2023-01-27 21:29:48,15.08830855,0.0001257,53.2144,277.5089,96.4373,263.6762,3.4932e-06,-2.32e-06,0.0,0 STARLINK-5113,1 53988U 22125AA  23027.89569710 -.00000232  00000-0  34932-5 0  9998,2 53988  53.2144 277.5089 0001257  96.4373 263.6762 15.08830855 17833,6917.908,95.438,540.643,538.904,0.0
53988.0,STARLINK-5113,PAYLOAD,2023-01-28 02:15:57,15.08838633,0.0001276,53.2158,276.6135,105.1075,255.0058,-4.9991e-05,-1.083e-05,0.0,0 STARLINK-5113,1 53988U 22125AA  23028.09441427 -.00001083  00000-0 -49991-4 0  9991,2 53988  53.2158 276.6135 0001276 105.1075 255.0058 15.08838633 17945,6917.885,95.438,540.632,538.867,0.0
53988.0,STARLINK-5113,PAYLOAD,2023-01-28 19:45:11,15.08842345,0.0001345,53.2155,273.3422,111.0694,249.0442,-6.6568e-05,-1.347e-05,0.0,0 STARLINK-5113,1 53988U 22125AA  23028.82305364 -.00001347  00000-0 -66568-4 0  9993,2 53988  53.2155 273.3422 0001345 111.0694 249.0442 15.08842345 17973,6917.873,95.437,540.669,538.808,0.0
53988.0,STARLINK-5113,PAYLOAD,2023-01-29 22:46:45,15.08838357,0.00011,53.2145,268.2875,87.5108,272.601,5.7413e-05,6.26e-06,0.0,0 STARLINK-5113,1 53988U 22125AA  23029.94913373  .00000626  00000-0  57413-4 0  9998,2 53988  53.2145 268.2875 0001100  87.5108 272.6010 15.08838357 18144,6917.885,95.438,540.511,538.989,0.0
53988.0,STARLINK-5113,PAYLOAD,2023-01-30 22:37:32,15.08841788,0.0001116,53.2137,263.8291,85.8008,274.3111,-1.5478e-05,-5.34e-06,0.0,0 STARLINK-5113,1 53988U 22125AA  23030.94273592 -.00000534  00000-0 -15478-4 0  9997,2 53988  53.2137 263.8291 0001116  85.8008 274.3111 15.08841788 18294,6917.875,95.437,540.512,538.968,0.0
53988.0,STARLINK-5113,PAYLOAD,2023-01-31 01:48:18,15.08841743,0.000117,53.214,263.2338,87.0638,273.0488,6.1338e-06,-1.9e-06,0.0,0 STARLINK-5113,1 53988U 22125AA  23031.07521503 -.00000190  00000-0  61338-5 0  9994,2 53988  53.2140 263.2338 0001170  87.0638 273.0488 15.08841743 18392,6917.875,95.437,540.549,538.931,0.0
53988.0,STARLINK-5113,PAYLOAD,2023-01-31 14:31:24,15.08817121,0.0001076,53.2138,260.8547,94.5967,265.5148,0.00026549,3.937e-05,0.0,0 STARLINK-5113,1 53988U 22125AA  23031.60514423  .00003937  00000-0  26549-3 0  9990,2 53988  53.2138 260.8547 0001076  94.5967 265.5148 15.08817121 18399,6917.95,95.439,540.56,539.071,0.0
53988.0,STARLINK-5113,PAYLOAD,2023-01-31 16:06:47,15.0883746,0.0001136,53.2139,260.5572,89.581,270.5312,-1.2839e-05,-4.92e-06,0.0,0 STARLINK-5113,1 53988U 22125AA  23031.67137923 -.00000492  00000-0 -12839-4 0  9996,2 53988  53.2139 260.5572 0001136  89.5810 270.5312 15.08837460 18402,6917.888,95.438,540.539,538.967,0.0
53988.0,STARLINK-5113,PAYLOAD,2023-02-01 17:32:57,15.08840043,0.0001112,53.214,255.7988,87.5836,272.5283,1.5669e-05,-3.8e-07,0.0,0 STARLINK-5113,1 53988U 22125AA  23032.73121717 -.00000038  00000-0  15669-4 0  9997,2 53988  53.2140 255.7988 0001112  87.5836 272.5283 15.08840043 18647,6917.88,95.438,540.515,538.976,0.0
53988.0,STARLINK-5113,PAYLOAD,2023-02-02 11:02:11,15.08837418,0.000113,53.214,252.5275,87.9176,272.1946,2.8463e-05,1.65e-06,0.0,0 STARLINK-5113,1 53988U 22125AA  23033.45985858  .00000165  00000-0  28463-4 0  9997,2 53988  53.2140 252.5275 0001130  87.9176 272.1946 15.08837418 18679,6917.888,95.438,540.535,538.972,0.0
53988.0,STARLINK-5113,PAYLOAD,2023-02-02 23:45:16,15.08839839,0.0001491,53.2124,250.1475,100.2813,259.8347,4.2698e-05,3.92e-06,0.0,0 STARLINK-5113,1 53988U 22125AA  23033.98977621  .00000392  00000-0  42698-4 0  9992,2 53988  53.2124 250.1475 0001491 100.2813 259.8347 15.08839839 18838,6917.881,95.438,540.777,538.714,0.0
53988.0,STARLINK-5113,PAYLOAD,2023-02-03 14:03:44,15.08840084,0.0001543,53.2142,247.4716,100.2719,259.8447,1.3017e-05,-8.1e-07,0.0,0 STARLINK-5113,1 53988U 22125AA  23034.58593498 -.00000081  00000-0  13017-4 0  9994,2 53988  53.2142 247.4716 0001543 100.2719 259.8447 15.08840084 18844,6917.88,95.438,540.813,538.678,0.0
53988.0,STARLINK-5113,PAYLOAD,2023-02-04 09:08:22,15.08842696,0.000134,53.2129,243.9016,105.5874,254.5267,-2.9968e-05,-7.65e-06,0.0,0 STARLINK-5113,1 53988U 22125AA  23035.38081670 -.00000765  00000-0 -29968-4 0  9999,2 53988  53.2129 243.9016 0001340 105.5874 254.5267 15.08842696 19044,6917.872,95.437,540.664,538.81,0.0
53988.0,STARLINK-5113,PAYLOAD,2023-02-04 13:54:32,15.08840367,0.0001293,53.2132,243.0117,62.8529,297.2595,-3.2096e-05,-7.99e-06,0.0,0 STARLINK-5113,1 53988U 22125AA  23035.57953945 -.00000799  00000-0 -32096-4 0  9996,2 53988  53.2132 243.0117 0001293  62.8529 297.2595 15.08840367 18994,6917.879,95.438,540.639,538.85,0.0
53988.0,STARLINK-5113,PAYLOAD,2023-02-04 20:16:04,15.08841778,0.000115,53.2138,241.8226,69.6792,290.4324,-9.8516e-06,-4.45e-06,0.0,0 STARLINK-5113,1 53988U 22125AA  23035.84449713 -.00000445  00000-0 -98516-5 0  9997,2 53988  53.2138 241.8226 0001150  69.6792 290.4324 15.08841778 19034,6917.875,95.437,540.536,538.944,0.0
53988.0,STARLINK-5113,PAYLOAD,2023-02-05 13:45:19,15.08836346,0.0001143,53.2137,238.5514,83.2529,276.8593,1.1053e-07,-2.86e-06,0.0,0 STARLINK-5113,1 53988U 22125AA  23036.57314039 -.00000286  00000-0  11053-6 0  9994,2 53988  53.2137 238.5514 0001143  83.2529 276.8593 15.08836346 19141,6917.892,95.438,540.547,538.966,0.0
